IRIDIUM 57 [-]          
1 25273U 98019B   24019.93814024  .00000634  00000+0  21578-3 0  9991
2 25273  86.3974   0.6126 0002192  87.1287 273.0160 14.35051588351019
IRIDIUM 63 [-]          
1 25286U 98021B   24019.80797060  .00000757  00000+0  25629-3 0  9991
2 25286  86.3992 297.6036 0002252  89.5887 270.5567 14.35574143350020
IRIDIUM 69 [-]          
1 25319U 98026A   24019.89564604  .00001017  00000+0  31833-3 0  9992
2 25319  86.4003 312.3952 0000531 350.0346  10.0842 14.39759302349035
IRIDIUM 71 [-]          
1 25320U 98026B   24019.85945164  .00000866  00000+0  26847-3 0  9994
2 25320  86.3993 307.2093 0002717  34.6846 325.4530 14.40084602349540
IRIDIUM 73 [-]          
1 25344U 98032C   24019.72972605  .00000937  00000+0  23554-3 0  9994
2 25344  86.4404 264.9089 0001520  77.1755 282.9620 14.50251098355966
IRIDIUM 82 [-]          
1 25467U 98051A   24019.96578590  .00019732  00000+0  10917-2 0  9993
2 25467  86.3957 356.1939 0141894  47.8134 313.5046 15.05430907346003
IRIDIUM 2 [-]           
1 25527U 98066A   24020.04547351  .00060155  00000+0  10135-2 0  9995
2 25527  85.5145  38.4191 0005724 136.3170 223.8543 15.51447791384091
